STARLINK-31437          
1 60057U 24112V   24172.58335648 -.00921971  00000+0 -48325-2 0  9990
2 60057  53.1618 120.6509 0000708  81.8801  14.8154 15.82400603  2888
NOAA 1                  
1 04793U 70106A   24173.00217851 -.00000026  00000+0  10862-3 0  9996
2 04793 101.4453 225.0185 0031155 330.2566  96.0867 12.54028793450147
NOAA 2 (ITOS-D)         
1 06235U 72082A   24172.60750955 -.00000025  00000+0  13690-3 0  9997
2 06235 102.0143 171.6190 0004473 111.8448   3.7316 12.53181275363938
NOAA 3                  
1 06920U 73086A   24172.98251569 -.00000046  00000+0  14562-5 0  9995
2 06920 102.2763 169.0056 0006779  22.2525 351.1702 12.40368003292047
NOAA 4                  
1 07529U 74089A   24172.58241833 -.00000039  00000+0  45429-4 0  9991
2 07529 101.9866 166.8751 0009229 139.4717 328.2163 12.53180850268503
NOAA 5                  
1 09057U 76077A   24172.90380647 -.00000047  00000+0 -87008-5 0  9991
2 09057 102.2069 146.3240 0009210 227.9650 145.9255 12.37801289164830
TIROS N                 
1 11060U 78096A   24172.59335232  .00000214  00000+0  12320-3 0  9993
2 11060  98.5316 212.8600 0010516 179.5069 180.6119 14.18831261575694
NOAA 6                  
1 11416U 79057A   24173.01878744  .00000373  00000+0  14808-3 0  9993
2 11416  98.6281 194.2372 0008940 246.2482 113.7766 14.34542800347013
NOAA 7                  
1 12553U 81059A   24173.00383458  .00000078  00000+0  60699-4 0  9995
2 12553  98.8932 232.3309 0011522 178.5590 181.5619 14.17534822222076
NOAA 8                  
1 13923U 83022A   24172.99398964  .00000182  00000+0  89044-4 0  9995
2 13923  98.7294 172.9637 0014138 218.7164 141.3005 14.29259459147578
NOAA 9                  
1 15427U 84123A   24172.98564825  .00000152  00000+0  99813-4 0  9991
2 15427  99.1173 170.5152 0013757 244.1290 170.3088 14.16605663 40826
NOAA 10                 
1 16969U 86073A   24172.57846157  .00000190  00000+0  93073-4 0  9999
2 16969  98.6404 158.4789 0011469 327.4614 146.5855 14.28632420965639
NOAA 11                 
1 19531U 88089A   24172.89231698  .00000064  00000+0  53928-4 0  9994
2 19531  98.5183 135.2941 0010267 219.7373 140.3050 14.15543019844965
NOAA 12                 
1 21263U 91032A   24172.57330521  .00000160  00000+0  84674-4 0  9990
2 21263  98.5572 163.6124 0013628 357.2515   2.8589 14.26323085721368
NOAA 13                 
1 22739U 93050A   24172.47282649  .00000152  00000+0  10345-3 0  9991
2 22739  98.6062 129.8521 0010432  48.7389 311.4681 14.13224679590718
NOAA 14                 
1 23455U 94089A   24172.55704243  .00000074  00000+0  60073-4 0  9995
2 23455  98.4317 168.3759 0009860  20.1066 340.0495 14.14401198520476
NOAA 15                 
1 25338U 98030A   24173.02401475  .00000287  00000+0  13656-3 0  9991
2 25338  98.5679 200.0706 0009378 318.7159  41.3312 14.26607498357986
NOAA 16                 
1 26536U 00055A   24172.97612160  .00000115  00000+0  82796-4 0  9992
2 26536  98.5307 212.4007 0009699 219.8967 140.1494 14.13590080224616
NOAA 17                 
1 27453U 02032A   24172.57794626  .00000187  00000+0  98054-4 0  9995
2 27453  98.7631 123.1667 0010719 302.6581  57.3564 14.25596302143438
NOAA 18                 
1 28654U 05018A   24172.88964706  .00000238  00000+0  15064-3 0  9994
2 28654  98.8745 249.8238 0015017  56.1461 304.1138 14.13234822983786
NOAA 19                 
1 33591U 09005A   24172.98315232  .00000233  00000+0  14958-3 0  9991
2 33591  99.0467 228.8224 0012746 282.1976  77.7768 14.13030278792167
SUOMI NPP               
1 37849U 11061A   24172.77796703  .00000115  00000+0  75276-4 0  9999
2 37849  98.7223 110.7047 0000600  87.4098 272.7147 14.19584879655378
NOAA 20 (JPSS-1)        
1 43013U 17073A   24172.58416516  .00000096  00000+0  66275-4 0  9995
2 43013  98.7065 110.4492 0001082 135.8018 224.3245 14.19598174341386
NOAA 21 (JPSS-2)        
1 54234U 22150A   24172.97193073  .00000089  00000+0  63297-4 0  9990
2 54234  98.7519 110.8213 0001787 104.4324 255.7050 14.19528187 83513
ISS (ZARYA)             
1 25544U 98067A   24172.48791663  .00015904  00000+0  29004-3 0  9996
2 25544  51.6399 298.9350 0010535 347.1139  12.9579 15.49560317459061
CSS (TIANHE)            
1 48274U 21035A   24173.00165841  .00033221  00000+0  36818-3 0  9997
2 48274  41.4689  59.8603 0004698 255.6655 104.3663 15.62256078179698
ISS (NAUKA)             
1 49044U 21066A   24172.48791663  .00015904  00000+0  29004-3 0  9992
2 49044  51.6399 298.9350 0010535 347.1139  12.9579 15.49560317164391
FREGAT DEB              
1 49271U 11037PF  24172.90709837  .00028870  00000+0  57011-1 0  9993
2 49271  51.6773 337.3315 1004022 132.5973 236.4109 12.17230449135656
CSS (WENTIAN)           
1 53239U 22085A   24172.42631355  .00031199  00000+0  34667-3 0  9995
2 53239  41.4690  63.3691 0004624 253.0960 106.9373 15.62213851102474
CSS (MENGTIAN)          
1 54216U 22143A   24172.42631355  .00031199  00000+0  34667-3 0  9996
2 54216  41.4690  63.3691 0004624 253.0960 106.9373 15.62213851 92276
ISS DEB                 
1 58229U 98067WC  24172.57274198  .00956212  56019-3  85307-3 0  9990
2 58229  51.6209 269.2557 0013182 331.5350  28.4944 16.12072242 36245
BEAK                    
1 58612U 98067WD  24172.67761599  .00763188  31062-3  95684-3 0  9991
2 58612  51.6253 273.7925 0013940 328.2955  31.7217 16.06818607 29142
TIANZHOU-7              
1 58811U 24013A   24172.42631355  .00031199  00000+0  34667-3 0  9999
2 58811  41.4690  63.3691 0004624 253.0960 106.9373 15.62213851172427
CYGNUS NG-20            
1 58898U 24021A   24172.48791663  .00015904  00000+0  29004-3 0  9993
2 58898  51.6399 298.9350 0010535 347.1139  12.9579 15.49560317 21547
PROGRESS-MS 26          
1 58961U 24029A   24172.48791663  .00015904  00000+0  29004-3 0  9992
2 58961  51.6399 298.9350 0010535 347.1139  12.9579 15.49560317 18847
CREW DRAGON 8           
1 59097U 24042A   24172.48791663  .00015904  00000+0  29004-3 0  9998
2 59097  51.6399 298.9350 0010535 347.1139  12.9579 15.49560317 16048
SOYUZ-MS 25             
1 59294U 24055A   24172.48791663  .00015904  00000+0  29004-3 0  9991
2 59294  51.6399 298.9350 0010535 347.1139  12.9579 15.49560317 13347
MICROORBITER-1          
1 59483U 98067WF  24172.72358758  .00110102  00000+0  10214-2 0  9994
2 59483  51.6336 293.7479 0010221 318.5713  41.4507 15.66556696 11031
CURTIS                  
1 59507U 98067WG  24172.66492065  .00075699  00000+0  82137-3 0  9999
2 59507  51.6337 294.8567 0007643 319.0872  40.9547 15.62796620 11021
KASHIWA                 
1 59508U 98067WH  24172.75218895  .00137599  00000+0  11646-2 0  9991
2 59508  51.6313 293.1827 0011389 319.9057  40.1098 15.68688183 11059
1998-067WJ              
1 59559U 98067WJ  24172.58497174  .00066224  00000+0  75930-3 0  9990
2 59559  51.6363 295.8355 0007322 296.9681  63.0565 15.61433712  9873
1998-067WK              
1 59560U 98067WK  24172.75513460  .00170193  00000+0  13372-2 0  9990
2 59560  51.6328 293.2093 0013679 308.1367  51.8397 15.70334549  9849
1998-067WL              
1 59561U 98067WL  24172.81787866  .00033966  00000+0  47798-3 0  9997
2 59561  51.6368 295.8906 0004598 305.9906  54.0659 15.56322205  9867
BURSTCUBE               
1 59562U 98067WM  24172.71566426  .00075999  00000+0  86214-3 0  9992
2 59562  51.6366 295.2099 0007874 323.6450  36.4009 15.61647437  9871
SNOOPI                  
1 59563U 98067WN  24172.81061252  .00064263  00000+0  77916-3 0  9992
2 59563  51.6380 295.0948 0006599 322.9436  37.1100 15.59994921  9878
SHENZHOU-18 (SZ-18)     
1 59591U 24078A   24172.42631355  .00031199  00000+0  34667-3 0  9996
2 59591  41.4690  63.3691 0004624 253.0960 106.9373 15.62213851  8083
1998-067WP              
1 59596U 98067WP  24172.59937580  .00093121  00000+0  95362-3 0  9999
2 59596  51.6348 295.1777 0008909 302.8385  57.1751 15.64169445  9893
1998-067WQ              
1 59597U 98067WQ  24172.59676038  .00094681  00000+0  96356-3 0  9994
2 59597  51.6378 295.1699 0009087 302.9131  57.0989 15.64318341  9868
SZ-17 MODULE            
1 59624U 23164C   24172.91962255  .00031495  00000+0  30474-3 0  9999
2 59624  41.4780  60.1354 0008059 279.4511  80.5419 15.65691374  8127
PROGRESS-MS 27          
1 59913U 24103A   24172.48791663  .00015904  00000+0  29004-3 0  9993
2 59913  51.6399 298.9350 0010535 347.1139  12.9579 15.49560317459068
STARLINER CFT-1         
1 59968U 24109A   24172.48791663  .00015904  00000+0  29004-3 0  9999
2 59968  51.6399 298.9350 0010535 347.1139  12.9579 15.49560317  1544
